IRIDIUM 159             
1 43578U 18061K   24019.56474913  .00000201  00000+0  64646-4 0  9990
2 43578  86.3937  64.3231 0002337  96.4168 263.7294 14.34217894287309
IRIDIUM 180             
1 43922U 19002A   24019.49446215  .00000608  00000+0  20989-3 0  9997
2 43922  86.3981   1.2301 0002246  91.7354 268.4099 14.34225052262902
IRIDIUM 176             
1 43923U 19002B   24019.45297409  .00002156  00000+0  33778-3 0  9993
2 43923  86.6113   1.2773 0002583  89.4399 270.7114 14.72285099269813
IRIDIUM 168             
1 43924U 19002C   24019.41835424  .00000545  00000+0  18766-3 0  9995
2 43924  86.3984   1.3147 0002259  90.5326 269.6128 14.34224868262872
IRIDIUM 173             
1 43925U 19002D   24019.47544813  .00000531  00000+0  18264-3 0  9999
2 43925  86.3979   1.2158 0002301  87.1600 272.9859 14.34216199262868
IRIDIUM 169             
1 43926U 19002E   24019.58037812  .00000368  00000+0  11372-3 0  9999
2 43926  86.4210  32.7753 0003573  41.3351 318.8117 14.38611826263762
IRIDIUM 172             
1 43927U 19002F   24019.46910393  .00000642  00000+0  22222-3 0  9992
2 43927  86.3979   1.2239 0002180  89.5576 270.5869 14.34216125262878
IRIDIUM 175             
1 43928U 19002G   24019.37899294  .00001350  00000+0  21028-3 0  9999
2 43928  86.1529 342.9286 0002473  85.8502 274.2997 14.72207451269793
